OBJECT_NAME,OBJECT_ID,EPOCH,MEAN_MOTION,ECCENTRICITY,INCLINATION,RA_OF_ASC_NODE,ARG_OF_PERICENTER,MEAN_ANOMALY,EPHEMERIS_TYPE,CLASSIFICATION_TYPE,NORAD_CAT_ID,ELEMENT_SET_NO,REV_AT_EPOCH,BSTAR,MEAN_MOTION_DOT,MEAN_MOTION_DDOT
STARLINK-31740,2024-065N,2026-01-26T15:07:30.142272,15.30174841,.00010681,53.1605,118.9084,80.2705,279.8417,0,U,59433,999,10246,-.25586014E-4,-.1116E-4,0
STARLINK-31580,2024-065P,2026-01-26T15:19:38.926272,15.30182918,.00010358,53.1584,118.9557,107.4981,252.6133,0,U,59434,999,10246,.23972863E-4,.351E-5,0
STARLINK-31696,2024-065Q,2026-01-26T15:28:00.076512,15.30184548,.00013389,53.1601,116.8635,80.9620,279.1532,0,U,59435,999,10249,-.3334842E-5,-.458E-5,0
STARLINK-31700,2024-065R,2026-01-26T15:18:53.078976,15.30179985,.00012015,53.1601,116.8234,73.4524,286.6609,0,U,59436,999,10249,-.23011243E-4,-.104E-4,0
STARLINK-31706,2024-065S,2026-01-26T15:09:00.089856,15.30181682,.00010473,53.1598,118.9160,87.0682,273.0439,0,U,59437,999,10246,-.12753132E-3,-.4132E-4,0
STARLINK-31711,2024-065T,2026-01-26T15:23:26.467584,15.30181747,.00013284,53.1590,116.8395,81.9266,278.1885,0,U,59438,999,10249,-.54276233E-4,-.1965E-4,0
STARLINK-31708,2024-065U,2026-01-26T15:09:45.972576,15.30182207,.00011825,53.1594,116.7817,81.4770,278.6365,0,U,59439,999,10249,-.82598441E-4,-.2803E-4,0
STARLINK-31693,2024-065W,2026-01-26T12:38:08.343744,15.30174371,.0001197,53.1593,117.5428,84.2895,275.8242,0,U,59441,999,10247,-.22470538E-4,-.1024E-4,0
TSAT-1A,2024-066A,2026-01-26T14:03:54.631872,15.31844907,.00081619,45.6167,172.5387,23.4221,336.7044,0,U,59442,999,10003,.64200419E-3,.19869E-3,0
HAWK-8A,2024-066B,2026-01-25T17:52:41.567520,14.98564308,.00032266,45.5943,292.7761,4.1605,355.9302,0,U,59443,999,9846,.27127754E-3,.3069E-4,0
CAPELLA-14 (ACADIA-4),2024-066C,2026-01-25T18:02:21.520608,15.08676268,.00042088,45.6048,285.5934,234.9186,125.1305,0,U,59444,999,9093,.17224108E-2,.27271E-3,0
HAWK-8B,2024-066D,2026-01-25T17:53:14.294112,14.98567168,.00031585,45.6198,294.3566,7.9454,352.1477,0,U,59445,999,9845,.25586673E-3,.2882E-4,0
HAWK-9A,2024-066E,2026-01-26T10:26:39.428448,14.98551491,.00028613,45.6095,289.6235,352.6704,7.4135,0,U,59446,999,9856,.27900889E-3,.3162E-4,0
QPS-SAR-7 (TSUKUYOMI-II),2024-066F,2026-01-26T15:46:25.269024,15.06709779,.00008864,45.6042,266.9535,216.4052,143.6772,0,U,59447,999,9886,.75667914E-3,.11186E-3,0
HAWK-9C,2024-066G,2026-01-26T00:51:05.452128,14.98550081,.0003118,45.5974,290.9402,337.4232,22.6512,0,U,59448,999,9850,.30809509E-3,.3516E-4,0
HAWK-8C,2024-066H,2026-01-26T09:52:32.474208,14.98568880,.00027185,45.6078,290.1270,13.2060,346.8892,0,U,59449,999,9855,.25342636E-3,.2852E-4,0
HAWK-9B,2024-066J,2026-01-26T07:15:05.181984,14.98551435,.0003448,45.6219,291.0939,337.1214,22.9513,0,U,59450,999,9854,.28008E-3,.3175E-4,0
CENTAURI-6,2024-066K,2026-01-26T00:35:49.062624,15.04201199,.00009714,45.6052,276.1686,43.4690,316.6270,0,U,59451,999,9870,.7264435E-3,.10016E-3,0
KORSAT-1,2024-066L,2026-01-26T16:19:09.549696,14.99334260,.00102405,45.4100,258.0498,337.2275,22.8148,0,U,59452,999,9882,.48962414E-3,.5852E-4,0
STARLINK-31622,2024-068B,2026-01-26T16:02:21.839712,15.27568963,.00009367,43.0026,272.0475,276.8019,83.2726,0,U,59456,999,10209,.51307862E-4,.115E-4,0
STARLINK-31319,2024-068C,2026-01-25T17:29:43.002816,15.27561628,.00012758,43.0012,273.5764,264.8087,95.2619,0,U,59457,999,10199,.13593977E-3,.3478E-4,0
STARLINK-31625,2024-068D,2026-01-25T22:31:53.691168,15.27429345,.00000553,43.0022,276.0303,214.1039,145.9809,0,U,59458,999,10198,.12676697E-2,.34625E-3,0
STARLINK-31631,2024-068E,2026-01-26T08:50:55.826880,15.27576391,.00005252,43.0016,269.7778,271.7592,88.3200,0,U,59459,999,10209,.47145553E-4,.1036E-4,0
STARLINK-31620,2024-068F,2026-01-25T22:23:16.710720,15.27576956,.00011622,43.0014,272.5258,272.4318,87.6401,0,U,59460,999,10202,-.16836712E-4,-.725E-5,0
STARLINK-31511,2024-068H,2026-01-26T00:15:13.181472,15.27603059,.0001762,43.0016,275.7082,272.0707,87.9943,0,U,59462,999,10199,.16699514E-3,.4339E-4,0
STARLINK-31364,2024-068J,2026-01-25T23:37:04.681344,15.27579260,.00024017,43.0113,272.0569,272.5075,87.5502,0,U,59463,999,10203,.74189362E-4,.1779E-4,0
STARLINK-31597,2024-068K,2026-01-26T15:42:00.158400,15.27574429,.00005371,42.9979,271.9348,305.5667,54.5134,0,U,59464,999,10204,.90001908E-4,.2215E-4,0
STARLINK-31621,2024-068L,2026-01-26T15:51:15.850368,15.27569273,.00009746,43.0025,271.9988,273.6598,86.4142,0,U,59465,999,10209,.41003424E-4,.866E-5,0
STARLINK-31462,2024-068M,2026-01-25T23:49:20.056800,15.27581923,.00013869,43.0002,275.5580,271.7803,88.2890,0,U,59466,999,10199,.41747783E-3,.11244E-3,0
STARLINK-31592,2024-068N,2026-01-25T22:52:10.587648,15.27607669,.00011477,43.0013,276.1369,235.3255,124.7488,0,U,59467,999,10198,-.24219542E-3,-.6926E-4,0
