STARLINK-31740          
1 59433U 24065N   26026.63020998 -.00001116  00000+0 -25586-4 0  9994
2 59433  53.1605 118.9084 0001068  80.2705 279.8417 15.30174841102469
STARLINK-31580          
1 59434U 24065P   26026.63864498  .00000351  00000+0  23973-4 0  9992
2 59434  53.1584 118.9557 0001035 107.4981 252.6133 15.30182918102461
STARLINK-31696          
1 59435U 24065Q   26026.64444533 -.00000458  00000+0 -33348-5 0  9996
2 59435  53.1601 116.8635 0001338  80.9620 279.1532 15.30184548102498
STARLINK-31700          
1 59436U 24065R   26026.63811434 -.00001040  00000+0 -23011-4 0  9997
2 59436  53.1601 116.8234 0001201  73.4524 286.6609 15.30179985102490
STARLINK-31706          
1 59437U 24065S   26026.63125104 -.00004132  00000+0 -12753-3 0  9995
2 59437  53.1598 118.9160 0001047  87.0682 273.0439 15.30181682102466
STARLINK-31711          
1 59438U 24065T   26026.64127856 -.00001965  00000+0 -54276-4 0  9991
2 59438  53.1590 116.8395 0001328  81.9266 278.1885 15.30181747102495
STARLINK-31708          
1 59439U 24065U   26026.63178209 -.00002803  00000+0 -82598-4 0  9999
2 59439  53.1594 116.7817 0001182  81.4770 278.6365 15.30182207102491
STARLINK-31693          
1 59441U 24065W   26026.52648546 -.00001024  00000+0 -22471-4 0  9994
2 59441  53.1593 117.5428 0001197  84.2895 275.8242 15.30174371102479
TSAT-1A                 
1 59442U 24066A   26026.58604898  .00019869  00000+0  64200-3 0  9993
2 59442  45.6167 172.5387 0008161  23.4221 336.7044 15.31844907100031
HAWK-8A                 
1 59443U 24066B   26025.74492555  .00003069  00000+0  27128-3 0  9999
2 59443  45.5943 292.7761 0003226   4.1605 355.9302 14.98564308 98462
CAPELLA-14 (ACADIA-4)   
1 59444U 24066C   26025.75163797  .00027271  00000+0  17224-2 0  9990
2 59444  45.6048 285.5934 0004208 234.9186 125.1305 15.08676268 90935
HAWK-8B                 
1 59445U 24066D   26025.74530433  .00002882  00000+0  25587-3 0  9998
2 59445  45.6198 294.3566 0003158   7.9454 352.1477 14.98567168 98453
HAWK-9A                 
1 59446U 24066E   26026.43517857  .00003162  00000+0  27901-3 0  9995
2 59446  45.6095 289.6235 0002861 352.6704   7.4135 14.98551491 98563
QPS-SAR-7 (TSUKUYOMI-II)
1 59447U 24066F   26026.65723691  .00011186  00000+0  75668-3 0  9993
2 59447  45.6042 266.9535 0000886 216.4052 143.6772 15.06709779 98862
HAWK-9C                 
1 59448U 24066G   26026.03547977  .00003516  00000+0  30810-3 0  9995
2 59448  45.5974 290.9402 0003118 337.4232  22.6512 14.98550081 98500
HAWK-8C                 
1 59449U 24066H   26026.41148697  .00002852  00000+0  25343-3 0  9991
2 59449  45.6078 290.1270 0002718  13.2060 346.8892 14.98568880 98558
HAWK-9B                 
1 59450U 24066J   26026.30214331  .00003175  00000+0  28008-3 0  9990
2 59450  45.6219 291.0939 0003448 337.1214  22.9513 14.98551435 98548
CENTAURI-6              
1 59451U 24066K   26026.02487341  .00010016  00000+0  72644-3 0  9990
2 59451  45.6052 276.1686 0000971  43.4690 316.6270 15.04201199 98708
KORSAT-1                
1 59452U 24066L   26026.67997164  .00005852  00000+0  48962-3 0  9999
2 59452  45.4100 258.0498 0010240 337.2275  22.8148 14.99334260 98826
STARLINK-31622          
1 59456U 24068B   26026.66830833  .00001150  00000+0  51308-4 0  9999
2 59456  43.0026 272.0475 0000936 276.8019  83.2726 15.27568963102096
STARLINK-31319          
1 59457U 24068C   26025.72896994  .00003478  00000+0  13594-3 0  9995
2 59457  43.0012 273.5764 0001275 264.8087  95.2619 15.27561628101991
STARLINK-31625          
1 59458U 24068D   26025.93881587  .00034625  00000+0  12677-2 0  9999
2 59458  43.0022 276.0303 0000055 214.1039 145.9809 15.27429345101982
STARLINK-31631          
1 59459U 24068E   26026.36870170  .00001036  00000+0  47146-4 0  9995
2 59459  43.0016 269.7778 0000525 271.7592  88.3200 15.27576391102098
STARLINK-31620          
1 59460U 24068F   26025.93283230 -.00000725  00000+0 -16837-4 0  9993
2 59460  43.0014 272.5258 0001162 272.4318  87.6401 15.27576956102020
STARLINK-31511          
1 59462U 24068H   26026.01056923  .00004339  00000+0  16700-3 0  9993
2 59462  43.0016 275.7082 0001762 272.0707  87.9943 15.27603059101992
STARLINK-31364          
1 59463U 24068J   26025.98408196  .00001779  00000+0  74189-4 0  9993
2 59463  43.0113 272.0569 0002401 272.5075  87.5502 15.27579260102034
STARLINK-31597          
1 59464U 24068K   26026.65416850  .00002215  00000+0  90002-4 0  9993
2 59464  42.9979 271.9348 0000537 305.5667  54.5134 15.27574429102046
STARLINK-31621          
1 59465U 24068L   26026.66060012  .00000866  00000+0  41003-4 0  9997
2 59465  43.0025 271.9988 0000974 273.6598  86.4142 15.27569273102093
STARLINK-31462          
1 59466U 24068M   26025.99259325  .00011244  00000+0  41748-3 0  9997
2 59466  43.0002 275.5580 0001386 271.7803  88.2890 15.27581923101997
STARLINK-31592          
1 59467U 24068N   26025.95290032 -.00006926  00000+0 -24220-3 0  9993
2 59467  43.0013 276.1369 0001147 235.3255 124.7488 15.27607669101988
